[{"OBJECT_NAME":"STARLINK-4398","OBJECT_ID":"2022-099B","EPOCH":"2026-03-09T20:40:09.712992","MEAN_MOTION":15.01260408,"ECCENTRICITY":0.00018332,"INCLINATION":97.602,"RA_OF_ASC_NODE":190.3842,"ARG_OF_PERICENTER":80.6969,"MEAN_ANOMALY":279.4462,"EPHEMERIS_TYPE":0,"CLASSIFICATION_TYPE":"U","NORAD_CAT_ID":53466,"ELEMENT_SET_NO":999,"REV_AT_EPOCH":19600,"BSTAR":2.7798956e-5,"MEAN_MOTION_DOT":2.99e-6,"MEAN_MOTION_DDOT":0},{"OBJECT_NAME":"FENGYUN 1C DEB","OBJECT_ID":"1999-025FL","EPOCH":"2026-03-09T22:45:53.964000","MEAN_MOTION":14.6476587,"ECCENTRICITY":0.01924493,"INCLINATION":98.0475,"RA_OF_ASC_NODE":57.7214,"ARG_OF_PERICENTER":300.1723,"MEAN_ANOMALY":112.544,"EPHEMERIS_TYPE":0,"CLASSIFICATION_TYPE":"U","NORAD_CAT_ID":29866,"ELEMENT_SET_NO":999,"REV_AT_EPOCH":1603,"BSTAR":0.0005168677,"MEAN_MOTION_DOT":3.558e-5,"MEAN_MOTION_DDOT":0}]
